start=new Date('2021-12-09T00:00:00.000Z').valueOf();
sats=[{"ARG_OF_PERICENTER":"84.5373","MEAN_ANOMALY":"275.5877","MEAN_MOTION":"15.06397556","FILE":"3235972","INCLINATION":"53.0537","REF_FRAME":"TEME","ELEMENT_SET_NO":"999","LAUNCH_DATE":"2020-02-17","GP_ID":"191362802","APOAPSIS":"548.806","OBJECT_NAME":"STARLINK-1202","MEAN_ELEMENT_THEORY":"SGP4","EPHEMERIS_TYPE":"0","TLE_LINE1":"1 45183U 20012F   21342.85263822  .00000525  00000-0  54168-4 0  9994","ECCENTRICITY":"0.00022890","DECAY_DATE":null,"PERIOD":"95.592","CLASSIFICATION_TYPE":"U","RCS_SIZE":"LARGE","NORAD_CAT_ID":"45183","TIME_SYSTEM":"UTC","SITE":"AFETR","REV_AT_EPOCH":"10094","SEMIMAJOR_AXIS":"6925.356","OBJECT_ID":"2020-012F","MEAN_MOTION_DOT":"0.00000525","OBJECT_TYPE":"PAYLOAD","TLE_LINE2":"2 45183  53.0537 173.0859 0002289  84.5373 275.5877 15.06397556100942","EPOCH":"2021-12-08T20:27:47.942208","PERIAPSIS":"545.636","BSTAR":"0.00005416800000","MEAN_MOTION_DDOT":"0.0000000000000","RA_OF_ASC_NODE":"173.0859","COUNTRY_CODE":"US","CENTER_NAME":"EARTH"},{"EPHEMERIS_TYPE":"0","TLE_LINE1":"1 45184U 20012G   21342.77709448  .00000402  00000-0  45938-4 0  9994","MEAN_ELEMENT_THEORY":"SGP4","ECCENTRICITY":"0.00020910","CLASSIFICATION_TYPE":"U","DECAY_DATE":null,"PERIOD":"95.593","MEAN_MOTION":"15.06384423","MEAN_ANOMALY":"273.5339","ARG_OF_PERICENTER":"86.5889","LAUNCH_DATE":"2020-02-17","ELEMENT_SET_NO":"999","FILE":"3235972","REF_FRAME":"TEME","INCLINATION":"53.0528","GP_ID":"191361550","OBJECT_NAME":"STARLINK-1205","APOAPSIS":"548.709","PERIAPSIS":"545.813","EPOCH":"2021-12-08T18:39:00.963072","TLE_LINE2":"2 45184  53.0528 153.4195 0002091  86.5889 273.5339 15.06384423100246","COUNTRY_CODE":"US","RA_OF_ASC_NODE":"153.4195","MEAN_MOTION_DDOT":"0.0000000000000","BSTAR":"0.00004593800000","CENTER_NAME":"EARTH","NORAD_CAT_ID":"45184","TIME_SYSTEM":"UTC","RCS_SIZE":"LARGE","REV_AT_EPOCH":"10024","SITE":"AFETR","OBJECT_ID":"2020-012G","SEMIMAJOR_AXIS":"6925.396","MEAN_MOTION_DOT":"0.00000402","OBJECT_TYPE":"PAYLOAD"},{"NORAD_CAT_ID":"45185","TIME_SYSTEM":"UTC","RCS_SIZE":"LARGE","REV_AT_EPOCH":"10089","SITE":"AFETR","OBJECT_ID":"2020-012H","SEMIMAJOR_AXIS":"6925.373","MEAN_MOTION_DOT":"0.00000388","OBJECT_TYPE":"PAYLOAD","EPOCH":"2021-12-08T21:52:43.997376","PERIAPSIS":"545.843","TLE_LINE2":"2 45185  53.0535 172.8208 0002014  90.6725 269.4495 15.06392002100895","RA_OF_ASC_NODE":"172.8208","COUNTRY_CODE":"US","BSTAR":"0.00004498900000","MEAN_MOTION_DDOT":"0.0000000000000","CENTER_NAME":"EARTH","MEAN_MOTION":"15.06392002","MEAN_ANOMALY":"269.4495","ARG_OF_PERICENTER":"90.6725","ELEMENT_SET_NO":"999","LAUNCH_DATE":"2020-02-17","INCLINATION":"53.0535","FILE":"3235972","REF_FRAME":"TEME","GP_ID":"191361800","OBJECT_NAME":"STARLINK-1216","APOAPSIS":"548.633","EPHEMERIS_TYPE":"0","TLE_LINE1":"1 45185U 20012H   21342.91162034  .00000388  00000-0  44989-4 0  9993","MEAN_ELEMENT_THEORY":"SGP4","ECCENTRICITY":"0.00020140","CLASSIFICATION_TYPE":"U","PERIOD":"95.593","DECAY_DATE":null},{"TLE_LINE2":"2 45186  53.0537 173.0528 0002063  83.9608 276.1616 15.06385851100888","PERIAPSIS":"545.828","EPOCH":"2021-12-08T20:38:24.921888","MEAN_MOTION_DDOT":"0.0000000000000","BSTAR":"-0.00008457200000","COUNTRY_CODE":"US","RA_OF_ASC_NODE":"173.0528","CENTER_NAME":"EARTH","RCS_SIZE":"LARGE","NORAD_CAT_ID":"45186","TIME_SYSTEM":"UTC","SITE":"AFETR","REV_AT_EPOCH":"10088","SEMIMAJOR_AXIS":"6925.392","OBJECT_ID":"2020-012J","OBJECT_TYPE":"PAYLOAD","MEAN_MOTION_DOT":"-0.00001541","MEAN_ELEMENT_THEORY":"SGP4","EPHEMERIS_TYPE":"0","TLE_LINE1":"1 45186U 20012J   21342.86001067 -.00001541  00000-0 -84572-4 0  9992","ECCENTRICITY":"0.00020630","PERIOD":"95.593","DECAY_DATE":null,"CLASSIFICATION_TYPE":"U","MEAN_ANOMALY":"276.1616","ARG_OF_PERICENTER":"83.9608","MEAN_MOTION":"15.06385851","REF_FRAME":"TEME","FILE":"3235972","INCLINATION":"53.0537","LAUNCH_DATE":"2020-02-17","ELEMENT_SET_NO":"999","GP_ID":"191362552","APOAPSIS":"548.686","OBJECT_NAME":"STARLINK-1224"},{"TIME_SYSTEM":"UTC","NORAD_CAT_ID":"45187","RCS_SIZE":"LARGE","REV_AT_EPOCH":"10092","SITE":"AFETR","OBJECT_ID":"2020-012K","SEMIMAJOR_AXIS":"6925.403","MEAN_MOTION_DOT":"0.00000768","OBJECT_TYPE":"PAYLOAD","PERIAPSIS":"545.730","EPOCH":"2021-12-08T19:08:12.609888","TLE_LINE2":"2 45187  53.0527 173.3313 0002221  85.7416 274.3826 15.06382345100929","COUNTRY_CODE":"US","RA_OF_ASC_NODE":"173.3313","MEAN_MOTION_DDOT":"0.0000000000000","BSTAR":"0.00007050600000","CENTER_NAME":"EARTH","MEAN_MOTION":"15.06382345","MEAN_ANOMALY":"274.3826","ARG_OF_PERICENTER":"85.7416","LAUNCH_DATE":"2020-02-17","ELEMENT_SET_NO":"999","INCLINATION":"53.0527","FILE":"3235972","REF_FRAME":"TEME","GP_ID":"191363303","OBJECT_NAME":"STARLINK-1225","APOAPSIS":"548.806","TLE_LINE1":"1 45187U 20012K   21342.79736817  .00000768  00000-0  70506-4 0  9993","EPHEMERIS_TYPE":"0","MEAN_ELEMENT_THEORY":"SGP4","ECCENTRICITY":"0.00022210","CLASSIFICATION_TYPE":"U","PERIOD":"95.593","DECAY_DATE":null},{"FILE":"3235972","INCLINATION":"53.0542","REF_FRAME":"TEME","LAUNCH_DATE":"2020-02-17","ELEMENT_SET_NO":"999","ARG_OF_PERICENTER":"95.8446","MEAN_ANOMALY":"264.2787","MEAN_MOTION":"15.06396523","APOAPSIS":"548.707","OBJECT_NAME":"STARLINK-1228","GP_ID":"191362051","MEAN_ELEMENT_THEORY":"SGP4","EPHEMERIS_TYPE":"0","TLE_LINE1":"1 45188U 20012L   21342.89318857  .00000686  00000-0  64968-4 0  9999","PERIOD":"95.592","DECAY_DATE":null,"CLASSIFICATION_TYPE":"U","ECCENTRICITY":"0.00021410","SITE":"AFETR","REV_AT_EPOCH":"10145","RCS_SIZE":"LARGE","NORAD_CAT_ID":"45188","TIME_SYSTEM":"UTC","MEAN_MOTION_DOT":"0.00000686","OBJECT_TYPE":"PAYLOAD","SEMIMAJOR_AXIS":"6925.359","OBJECT_ID":"2020-012L","MEAN_MOTION_DDOT":"0.0000000000000","BSTAR":"0.00006496800000","COUNTRY_CODE":"US","RA_OF_ASC_NODE":"132.9114","TLE_LINE2":"2 45188  53.0542 132.9114 0002141  95.8446 264.2787 15.06396523101459","PERIAPSIS":"545.741","EPOCH":"2021-12-08T21:26:11.492448","CENTER_NAME":"EARTH"},{"CENTER_NAME":"EARTH","RA_OF_ASC_NODE":"173.3204","COUNTRY_CODE":"US","BSTAR":"-0.00002756200000","MEAN_MOTION_DDOT":"0.0000000000000","EPOCH":"2021-12-08T19:13:30.753696","PERIAPSIS":"545.771","TLE_LINE2":"2 45189  53.0542 173.3204 0002213  82.6008 277.5232 15.06370612 98152","MEAN_MOTION_DOT":"-0.00000692","OBJECT_TYPE":"PAYLOAD","OBJECT_ID":"2020-012M","SEMIMAJOR_AXIS":"6925.439","REV_AT_EPOCH":"9815","SITE":"AFETR","NORAD_CAT_ID":"45189","TIME_SYSTEM":"UTC","RCS_SIZE":"LARGE","CLASSIFICATION_TYPE":"U","PERIOD":"95.594","DECAY_DATE":null,"ECCENTRICITY":"0.00022130","TLE_LINE1":"1 45189U 20012M   21342.80105039 -.00000692  00000-0 -27562-4 0  9995","EPHEMERIS_TYPE":"0","MEAN_ELEMENT_THEORY":"SGP4","OBJECT_NAME":"STARLINK-1230","APOAPSIS":"548.836","GP_ID":"191362301","ELEMENT_SET_NO":"999","LAUNCH_DATE":"2020-02-17","REF_FRAME":"TEME","FILE":"3235972","INCLINATION":"53.0542","MEAN_MOTION":"15.06370612","ARG_OF_PERICENTER":"82.6008","MEAN_ANOMALY":"277.5232"},{"FILE":"3235972","REF_FRAME":"TEME","INCLINATION":"53.0541","LAUNCH_DATE":"2020-02-17","ELEMENT_SET_NO":"999","MEAN_ANOMALY":"267.1360","ARG_OF_PERICENTER":"92.9842","MEAN_MOTION":"15.06391349","APOAPSIS":"548.532","OBJECT_NAME":"STARLINK-1234","GP_ID":"191363053","MEAN_ELEMENT_THEORY":"SGP4","EPHEMERIS_TYPE":"0","TLE_LINE1":"1 45190U 20012N   21342.88581475  .00000449  00000-0  49084-4 0  9998","DECAY_DATE":null,"PERIOD":"95.593","CLASSIFICATION_TYPE":"U","ECCENTRICITY":"0.00018650","SITE":"AFETR","REV_AT_EPOCH":"10140","RCS_SIZE":"LARGE","TIME_SYSTEM":"UTC","NORAD_CAT_ID":"45190","OBJECT_TYPE":"PAYLOAD","MEAN_MOTION_DOT":"0.00000449","SEMIMAJOR_AXIS":"6925.375","OBJECT_ID":"2020-012N","MEAN_MOTION_DDOT":"0.0000000000000","BSTAR":"0.00004908400000","COUNTRY_CODE":"US","RA_OF_ASC_NODE":"132.9409","TLE_LINE2":"2 45190  53.0541 132.9409 0001865  92.9842 267.1360 15.06391349101403","PERIAPSIS":"545.948","EPOCH":"2021-12-08T21:15:34.394400","CENTER_NAME":"EARTH"},{"CENTER_NAME":"EARTH","COUNTRY_CODE":"US","RA_OF_ASC_NODE":"172.9909","MEAN_MOTION_DDOT":"0.0000000000000","BSTAR":"0.00004345700000","PERIAPSIS":"545.695","EPOCH":"2021-12-08T20:59:40.236000","TLE_LINE2":"2 45191  53.0523 172.9909 0002244  84.4396 275.6848 15.06388453 98159","OBJECT_TYPE":"PAYLOAD","MEAN_MOTION_DOT":"0.00000365","OBJECT_ID":"2020-012P","SEMIMAJOR_AXIS":"6925.384","REV_AT_EPOCH":"9815","SITE":"AFETR","NORAD_CAT_ID":"45191","TIME_SYSTEM":"UTC","RCS_SIZE":"LARGE","CLASSIFICATION_TYPE":"U","PERIOD":"95.593","DECAY_DATE":null,"ECCENTRICITY":"0.00022440","EPHEMERIS_TYPE":"0","TLE_LINE1":"1 45191U 20012P   21342.87477125  .00000365  00000-0  43457-4 0  9999","MEAN_ELEMENT_THEORY":"SGP4","OBJECT_NAME":"STARLINK-1236","APOAPSIS":"548.803","GP_ID":"191362803","LAUNCH_DATE":"2020-02-17","ELEMENT_SET_NO":"999","FILE":"3235972","INCLINATION":"53.0523","REF_FRAME":"TEME","MEAN_MOTION":"15.06388453","ARG_OF_PERICENTER":"84.4396","MEAN_ANOMALY":"275.6848"},{"MEAN_MOTION_DOT":"0.00000276","OBJECT_TYPE":"PAYLOAD","OBJECT_ID":"2020-012Q","SEMIMAJOR_AXIS":"6925.346","REV_AT_EPOCH":"10095","SITE":"AFETR","NORAD_CAT_ID":"45192","TIME_SYSTEM":"UTC","RCS_SIZE":"LARGE","CENTER_NAME":"EARTH","RA_OF_ASC_NODE":"172.8083","COUNTRY_CODE":"US","BSTAR":"0.00003745000000","MEAN_MOTION_DDOT":"0.0000000000000","EPOCH":"2021-12-08T21:58:00.481440","PERIAPSIS":"545.722","TLE_LINE2":"2 45192  53.0523 172.8083 0002150  86.5620 273.5615 15.06400862100951","OBJECT_NAME":"STARLINK-1237","APOAPSIS":"548.700","GP_ID":"191361551","ELEMENT_SET_NO":"999","LAUNCH_DATE":"2020-02-17","REF_FRAME":"TEME","FILE":"3235972","INCLINATION":"53.0523","MEAN_MOTION":"15.06400862","MEAN_ANOMALY":"273.5615","ARG_OF_PERICENTER":"86.5620","CLASSIFICATION_TYPE":"U","DECAY_DATE":null,"PERIOD":"95.592","ECCENTRICITY":"0.00021500","EPHEMERIS_TYPE":"0","TLE_LINE1":"1 45192U 20012Q   21342.91528335  .00000276  00000-0  37450-4 0  9992","MEAN_ELEMENT_THEORY":"SGP4"}];
